[{"OBJECT_NAME":"STARLINK-31450","OBJECT_ID":"2024-036J","EPOCH":"2026-03-09T06:54:26.460000","MEAN_MOTION":15.30189795,"ECCENTRICITY":0.00013241,"INCLINATION":53.1606,"RA_OF_ASC_NODE":79.8551,"ARG_OF_PERICENTER":88.416,"MEAN_ANOMALY":271.6992,"EPHEMERIS_TYPE":0,"CLASSIFICATION_TYPE":"U","NORAD_CAT_ID":59006,"ELEMENT_SET_NO":999,"REV_AT_EPOCH":11526,"BSTAR":1.7071386e-5,"MEAN_MOTION_DOT":1.46e-6,"MEAN_MOTION_DDOT":0},{"OBJECT_NAME":"FENGYUN 1C DEB","OBJECT_ID":"1999-025AQG","EPOCH":"2026-03-09T10:43:06.043872","MEAN_MOTION":15.25746961,"ECCENTRICITY":0.00178142,"INCLINATION":98.9311,"RA_OF_ASC_NODE":250.2123,"ARG_OF_PERICENTER":328.3876,"MEAN_ANOMALY":31.6286,"EPHEMERIS_TYPE":0,"CLASSIFICATION_TYPE":"U","NORAD_CAT_ID":30674,"ELEMENT_SET_NO":999,"REV_AT_EPOCH":98658,"BSTAR":0.015201752,"MEAN_MOTION_DOT":0.00411052,"MEAN_MOTION_DDOT":0}]
